STARLINK-36768
1 67803U 26032G   26061.16668981 -.00346758  00000+0 -23980-2 0  9995
2 67803  97.2849 247.3043 0001921  86.7340 162.0247 15.75391708  3572
STARLINK-36583
1 67545U 26014P   26061.15091419  .00460863  00000+0  29039-2 0  9996
2 67545  97.2838 305.6640 0001928  75.2607 284.8872 15.75373712  7385
STARLINK-36585
1 67540U 26014J   26061.15479559  .00419494  00000+0  26576-2 0  9993
2 67540  97.2839 305.6576 0002533  57.0054 303.1454 15.75363068  7380
STARLINK-36564
1 67549U 26014T   26061.14103222  .00420337  00000+0  26636-2 0  9997
2 67549  97.2839 305.6791 0002076  86.3326 273.8176 15.75354715  7324
STARLINK-36562
1 67570U 26016K   26061.11926304  .00439015  00000+0  27765-2 0  9991
2 67570  97.2832 121.2650 0001328 125.2673 234.8716 15.75347842  5614
STARLINK-36581
1 67543U 26014M   26061.12091486  .00366273  00000+0  23374-2 0  9991
2 67543  97.2846 305.7060 0001433  54.0677 306.0721 15.75341496  7386
STARLINK-36629
1 67596U 26018H   26061.11971162  .00406913  00000+0  25842-2 0  9998
2 67596  97.2842 126.5164 0001399 126.5153 233.6241 15.75340758  6111
STARLINK-36419
1 67584U 26016Z   26061.11502798  .00360040  00000+0  22998-2 0  9997
2 67584  97.2841 121.2693 0001747 117.0223 243.1220 15.75336437  5612
STARLINK-36688
1 67656U 26022J   26061.03019333  .00398543  00000+0  25343-2 0  9999
2 67656  97.2833  94.6362 0001428 117.2453 242.8958 15.75334153  4348
STARLINK-36435
1 67568U 26016H   26061.11291084  .00368618  00000+0  23532-2 0  9996
2 67568  97.2838 121.2719 0001346 120.8368 239.3030 15.75326417  5619
STARLINK-36597
1 67613U 26018AA  26061.12218539  .00347665  00000+0  22256-2 0  9995
2 67613  97.2827 126.6681 0000979 115.3900 244.7467 15.75319248  6122
STARLINK-36352
1 67567U 26016G   26061.12102690  .00350158  00000+0  22411-2 0  9995
2 67567  97.2836 121.2611 0001093 109.2287 250.9097 15.75317932  5611
STARLINK-35934
1 67542U 26014L   26061.11313903  .00339486  00000+0  21757-2 0  9999
2 67542  97.2846 305.7172 0001148 295.2162  64.8985 15.75316937  7372
STARLINK-36641
1 67589U 26018A   26061.12429792  .00340250  00000+0  21806-2 0  9995
2 67589  97.2836 126.5106 0001362 113.3124 246.8284 15.75314399  6119
STARLINK-36398
1 67562U 26016B   26061.11077421  .00397800  00000+0  25324-2 0  9993
2 67562  97.2830 121.1216 0001074 125.3346 234.8020 15.75309705  5609
STARLINK-36573
1 67539U 26014H   26061.12301991  .00307839  00000+0  19812-2 0  9996
2 67539  97.2837 305.7029 0000974 257.2518 102.8639 15.75307273  7381
STARLINK-36621
1 67561U 26016A   26061.10337429  .00309731  00000+0  19930-2 0  9990
2 67561  97.2841 121.1325 0001351 112.2878 247.8531 15.75305667  5608
STARLINK-36560
1 67585U 26016AA  26061.16055785  .00292551  00000+0  18865-2 0  9991
2 67585  97.2842 121.3612 0002824  89.5200 270.6388 15.75303459  5620
STARLINK-36720
1 67655U 26022H   26061.03089006  .00251410  00000+0  16299-2 0  9993
2 67655  97.2827  94.6355 0001044 128.8124 231.3235 15.75294809  4343
STARLINK-36566
1 67551U 26014V   26061.13467598  .00262558  00000+0  16999-2 0  9998
2 67551  97.2840 305.6871 0001837  67.5180 292.6279 15.75294254  7370
STARLINK-36594
1 67574U 26016P   26061.11714248  .00275175  00000+0  17789-2 0  9997
2 67574  97.2831 121.2665 0001450 119.0784 241.0627 15.75293849  5611
STARLINK-36591
1 67576U 26016R   26061.12314303  .00270091  00000+0  17469-2 0  9995
2 67576  97.2838 121.2584 0003917 117.2549 242.9116 15.75293040  5615
STARLINK-36567
1 67552U 26014W   26061.14313962  .00385239  00000+0  24579-2 0  9990
2 67552  97.2845 305.6734 0000320  75.6605 284.4696 15.75291377  7377
STARLINK-36640
1 67600U 26018M   26061.11759017  .00291760  00000+0  18826-2 0  9993
2 67600  97.2841 126.5192 0000695  73.9016 286.2326 15.75291248  6115
STARLINK-36281
1 67605U 26018S   26061.12642012  .00230045  00000+0  14957-2 0  9995
2 67605  97.2820 126.6610 0001977 114.1206 246.0267 15.75286994  6127
STARLINK-36636
1 67611U 26018Y   26061.13524347  .00237893  00000+0  15456-2 0  9996
2 67611  97.2859 126.6457 0001771 122.7996 237.3440 15.75281961  6123
STARLINK-36569
1 67553U 26014X   26061.11703078  .00335994  00000+0  21577-2 0  9997
2 67553  97.2853 305.7094 0001799  55.5583 304.5852 15.75278998  7372
STARLINK-36403
1 67563U 26016C   26061.12702545  .00229767  00000+0  14946-2 0  9991
2 67563  97.2822 121.2548 0002517 117.1516 243.0006 15.75275807  5613
STARLINK-36565
1 67544U 26014N   26061.12691058  .00301164  00000+0  19426-2 0  9994
2 67544  97.2846 305.6983 0001609  48.7116 311.4288 15.75273962  7383
STARLINK-36575
1 67569U 26016J   26061.10514416  .00272632  00000+0  17649-2 0  9995
2 67569  97.2835 121.2848 0001296 112.0904 248.0499 15.75269773  5610
STARLINK-36395
1 67554U 26014Y   26061.13749243  .00334099  00000+0  21469-2 0  9999
2 67554  97.2853 305.6809 0000415  91.4670 268.6643 15.75268594  7375
STARLINK-36411
1 67608U 26018V   26061.12995096  .00216488  00000+0  14114-2 0  9991
2 67608  97.2859 126.6576 0000221  55.1538 304.9748 15.75262053  6124
STARLINK-36631
1 67602U 26018P   26061.14124082  .00177821  00000+0  11646-2 0  9990
2 67602  97.2821 126.6416 0003354 113.3110 246.8508 15.75260953  6128
STARLINK-36579
1 67541U 26014K   26061.14702833  .00384482  00000+0  24568-2 0  9994
2 67541  97.2834 305.6702 0001478  78.5823 281.5608 15.75260358  7384
STARLINK-36400
1 67575U 26016Q   26061.13514066  .00171290  00000+0  11231-2 0  9995
2 67575  97.2823 121.2411 0002594  99.6392 260.5166 15.75255796  5613
STARLINK-36574
1 67535U 26014D   26061.11914445  .00295945  00000+0  19116-2 0  9996
2 67535  97.2844 305.7099 0000628 137.3344 222.7970 15.75254981  7380
STARLINK-36572
1 67536U 26014E   26061.15302542  .00319827  00000+0  20601-2 0  9997
2 67536  97.2838 305.6628 0001660  61.3616 298.7816 15.75254448  7386
STARLINK-36312
1 67609U 26018W   26061.15182765  .00169748  00000+0  11135-2 0  9992
2 67609  97.2840 126.6266 0002338 117.0447 243.1057 15.75250729  6123
STARLINK-36580
1 67546U 26014Q   26061.13290859  .00303676  00000+0  19601-2 0  9996
2 67546  97.2839 305.6891 0001091  83.2528 276.8862 15.75250573  7386
STARLINK-36353
1 67820U 26032Z   26061.16668981 -.00107742  00000+0 -72863-3 0  9997
2 67820  97.2840 247.3445 0002012  96.7847 252.0178 15.75250173  3576
STARLINK-36612
1 67580U 26016V   26061.10726427  .00187856  00000+0  12296-2 0  9991
2 67580  97.2819 121.2791 0001613 117.7555 242.3874 15.75250167  5610
STARLINK-36586
1 67548U 26014S   26061.15691451  .00326790  00000+0  21036-2 0  9990
2 67548  97.2854 305.8118 0001873  77.7210 282.4265 15.75249700  7394
STARLINK-36628
1 67595U 26018G   26061.17547286  .00152583  00000+0  10031-2 0  9994
2 67595  97.2847 126.5933 0001712  87.9247 272.2214 15.75249395  6127
STARLINK-35843
1 67606U 26018T   26061.16771066  .00180438  00000+0  11822-2 0  9990
2 67606  97.2835 126.6040 0001440  59.3430 300.7977 15.75249326  6129
STARLINK-36394
1 67566U 26016F   26061.15631684  .00173073  00000+0  11350-2 0  9996
2 67566  97.2841 121.2108 0001473  59.5284 300.6126 15.75248936  5616
STARLINK-36358
1 67598U 26018K   26061.17723847  .00143190  00000+0  94251-3 0  9997
2 67598  97.2840 126.5902 0002063  90.0598 270.0903 15.75246847  6123
STARLINK-36596
1 67670U 26022Y   26061.07466506  .00172858  00000+0  11337-2 0  9994
2 67670  97.2836  94.7271 0001258  84.1718 275.9690 15.75245801  4356
STARLINK-36563
1 67550U 26014U   26061.13679198  .00336165  00000+0  21620-2 0  9991
2 67550  97.2836 305.6830 0001192  63.2500 296.8887 15.75244566  7385
STARLINK-36588
1 67573U 26016N   26061.15278767  .00153235  00000+0  10076-2 0  9995
2 67573  97.2845 121.2167 0001555  48.7017 311.4382 15.75242400  5612
STARLINK-36426
1 67560U 26014AA  26061.11102835  .00244380  00000+0  15894-2 0  9992
2 67560  97.2841 305.7184 0000645 281.5924  78.5269 15.75240251  7377
STARLINK-36578
1 67571U 26016L   26061.15843520  .00137903  00000+0  90860-3 0  9992
2 67571  97.2842 121.2092 0001701  68.3359 291.8088 15.75239881  5617
STARLINK-36634
1 67593U 26018E   26061.15782990  .00153013  00000+0  10063-2 0  9997
2 67593  97.2825 126.6179 0001347  89.9782 270.1638 15.75239472  6126
STARLINK-36616
1 67672U 26022AA  26061.07395856  .00141984  00000+0  93506-3 0  9990
2 67672  97.2836  94.7284 0000913 127.3770 232.7578 15.75239400  4351
STARLINK-36590
1 67577U 26016S   26061.13902484  .00133365  00000+0  87923-3 0  9995
2 67577  97.2827 121.2355 0002260  85.9357 274.2167 15.75237980  5613
STARLINK-36593
1 67564U 26016D   26061.13302420  .00184166  00000+0  12066-2 0  9995
2 67564  97.2816 121.2450 0002213 102.9932 257.1580 15.75237707  5616
STARLINK-36365
1 67666U 26022U   26061.08136980  .00162974  00000+0  10706-2 0  9997
2 67666  97.2837  94.7192 0001675 134.5989 225.5413 15.75236671  4356
STARLINK-36351
1 67607U 26018U   26061.15394686  .00128535  00000+0  84800-3 0  9996
2 67607  97.2833 126.6238 0001778  93.1345 267.0124 15.75236150  6122
STARLINK-36397
1 67538U 26014G   26061.16288978  .00001147  00000+0  85451-5 0  9996
2 67538  97.2855 305.6491 0002234 110.7132 249.4373 15.75235526  7382
STARLINK-36577
1 67583U 26016Y   26061.16479219  .00119634  00000+0  79033-3 0  9996
2 67583  97.2841 121.3552 0001397  65.4286 294.7124 15.75231827  5625
STARLINK-36675
1 67663U 26022R   26061.08666386  .00123703  00000+0  81679-3 0  9997
2 67663  97.2835  94.7118 0001548  78.9560 281.1880 15.75231614  4352
STARLINK-36713
1 67701U 26025J   26060.96414779  .00206019  00000+0  13466-2 0  9996
2 67701  97.2854 172.1562 0001222  50.5432 309.5942 15.75231380  4739
STARLINK-36620
1 67654U 26022G   26061.16668981 -.00116909  00000+0 -79230-3 0  9991
2 67654  97.2830  94.7741 0001277  95.6705 303.9457 15.75230773  5680
STARLINK-36571
1 67579U 26016U   26061.14290771  .00110427  00000+0  73038-3 0  9993
2 67579  97.2831 121.2302 0002311  91.6948 268.4582 15.75229465  5614
STARLINK-36712
1 67700U 26025H   26061.08944003  .00185170  00000+0  12135-2 0  9993
2 67700  97.2850 172.2928 0001374  87.3118 272.8305 15.75229175  4743
